NORAD_CAT_ID,OBJECT_NAME,OBJECT_TYPE,EPOCH,MEAN_MOTION,ECCENTRICITY,INCLINATION,RA_OF_ASC_NODE,ARG_OF_PERICENTER,MEAN_ANOMALY,BSTAR,MEAN_MOTION_DOT,MEAN_MOTION_DDOT,TLE_LINE0,TLE_LINE1,TLE_LINE2,SEMIMAJOR_AXIS,PERIOD,APOGEE,PERIGEE,DECAYED
55646.0,STARLINK-5104,PAYLOAD,2024-03-21 14:10:01,14.983366,0.000299,70.0006,195.179,268.0123,92.0693,3.6062e-05,3.37e-06,0.0,0 STARLINK-5104,1 55646U 23021U   24081.59029237  .00000337  00000-0  36062-4 0  9990,2 55646  70.0006 195.1790 0002990 268.0123  92.0693 14.98336600 60921,6950.172,96.107,574.116,569.959,0.0
55646.0,STARLINK-5104,PAYLOAD,2024-03-21 17:22:16,14.98340447,0.0002839,70.0008,194.8425,267.3946,92.6888,9.4928e-05,1.04e-05,0.0,0 STARLINK-5104,1 55646U 23021U   24081.72380781  .00001040  00000-0  94928-4 0  9996,2 55646  70.0008 194.8425 0002839 267.3946  92.6888 14.98340447 61243,6950.161,96.106,573.999,570.052,0.0
55646.0,STARLINK-5104,PAYLOAD,2024-03-22 14:12:01,14.98333519,0.0002598,70.0013,192.6544,263.7605,96.3259,0.00016445,1.87e-05,0.0,0 STARLINK-5104,1 55646U 23021U   24082.59168730  .00001870  00000-0  16445-3 0  9998,2 55646  70.0013 192.6544 0002598 263.7605  96.3259 14.98333519 61370,6950.182,96.107,573.853,570.241,0.0
55646.0,STARLINK-5104,PAYLOAD,2024-03-22 17:24:17,14.98339927,0.00026,70.0015,192.3185,263.675,96.4113,0.00018901,2.164e-05,0.0,0 STARLINK-5104,1 55646U 23021U   24082.72520212  .00002164  00000-0  18901-3 0  9996,2 55646  70.0015 192.3185 0002600 263.6750  96.4113 14.98339927 61092,6950.162,96.106,573.834,570.22,0.0
55646.0,STARLINK-5104,PAYLOAD,2024-03-23 06:13:23,14.98332925,0.0001478,70.005,190.9755,269.0691,91.0298,-2.3632e-05,-3.75e-06,0.0,0 STARLINK-5104,1 55646U 23021U   24083.25929556 -.00000375  00000-0 -23632-4 0  9991,2 55646  70.0050 190.9755 0001478 269.0691  91.0298 14.98332925 61179,6950.184,96.107,573.076,571.022,0.0
55646.0,STARLINK-5104,PAYLOAD,2024-03-23 12:37:56,14.98323795,0.0002662,70.001,190.2981,274.4156,85.6699,-0.0001612,-2.015e-05,0.0,0 STARLINK-5104,1 55646U 23021U   24083.52634410 -.00002015  00000-0 -16120-3 0  9999,2 55646  70.0010 190.2981 0002662 274.4156  85.6699 14.98323795 61215,6950.212,96.107,573.927,570.227,0.0
55646.0,STARLINK-5104,PAYLOAD,2024-03-23 17:26:19,14.98328478,0.0002511,70.0011,189.7936,267.5686,92.5186,-0.00010555,-1.352e-05,0.0,0 STARLINK-5104,1 55646U 23021U   24083.72661942 -.00001352  00000-0 -10555-3 0  9990,2 55646  70.0011 189.7936 0002511 267.5686  92.5186 14.98328478 61247,6950.198,96.107,573.808,570.317,0.0
55646.0,STARLINK-5104,PAYLOAD,2024-03-24 11:03:47,14.98340142,0.0002541,70.0011,187.9412,266.6754,93.4114,1.1643e-05,4.6e-07,0.0,0 STARLINK-5104,1 55646U 23021U   24084.46096728  .00000046  00000-0  11643-4 0  9993,2 55646  70.0011 187.9412 0002541 266.6754  93.4114 14.98340142 61350,6950.162,96.106,573.793,570.26,0.0
55646.0,STARLINK-5104,PAYLOAD,2024-03-24 14:16:03,14.98343954,0.0002329,70.0015,187.605,251.8178,108.2727,6.0249e-05,6.26e-06,0.0,0 STARLINK-5104,1 55646U 23021U   24084.59448197  .00000626  00000-0  60249-4 0  9998,2 55646  70.0015 187.6050 0002329 251.8178 108.2727 14.98343954 61673,6950.15,96.106,573.633,570.396,0.0
55646.0,STARLINK-5104,PAYLOAD,2024-03-24 15:52:10,14.98348443,0.0002405,70.0012,187.4363,261.9572,98.1314,9.0248e-05,9.85e-06,0.0,0 STARLINK-5104,1 55646U 23021U   24084.66123812  .00000985  00000-0  90248-4 0  9990,2 55646  70.0012 187.4363 0002405 261.9572  98.1314 14.98348443 61385,6950.136,96.106,573.672,570.329,0.0
55646.0,STARLINK-5104,PAYLOAD,2024-03-24 23:52:51,14.9834423,0.0002224,70.0011,186.5944,272.9155,87.1749,-6.3112e-05,-8.46e-06,0.0,0 STARLINK-5104,1 55646U 23021U   24084.99504282 -.00000846  00000-0 -63112-4 0  9998,2 55646  70.0011 186.5944 0002224 272.9155  87.1749 14.98344230 61433,6950.149,96.106,573.56,570.468,0.0
55646.0,STARLINK-5104,PAYLOAD,2024-03-25 12:41:57,14.98319877,0.0002397,70.0012,185.2495,262.5623,97.5264,3.1818e-05,2.87e-06,0.0,0 STARLINK-5104,1 55646U 23021U   24085.52913794  .00000287  00000-0  31818-4 0  9995,2 55646  70.0012 185.2495 0002397 262.5623  97.5264 14.98319877 61512,6950.224,96.108,573.755,570.423,0.0
55646.0,STARLINK-5104,PAYLOAD,2024-03-25 15:54:13,14.98323216,0.0002327,70.0012,184.9127,262.9539,97.1355,6.4565e-05,6.77e-06,0.0,0 STARLINK-5104,1 55646U 23021U   24085.66265557  .00000677  00000-0  64565-4 0  9995,2 55646  70.0012 184.9127 0002327 262.9539  97.1355 14.98323216 61837,6950.214,96.107,573.696,570.462,0.0
55646.0,STARLINK-5104,PAYLOAD,2024-03-26 12:44:00,14.98312227,0.0002915,70.0001,182.7223,267.5426,92.5399,-0.00031753,-3.878e-05,0.0,0 STARLINK-5104,1 55646U 23021U   24086.53055926 -.00003878  00000-0 -31753-3 0  9999,2 55646  70.0001 182.7223 0002915 267.5426  92.5399 14.98312227 61665,6950.248,96.108,574.139,570.087,0.0
55646.0,STARLINK-5104,PAYLOAD,2024-03-26 14:20:08,14.98311736,0.00029,70.0001,182.5541,267.2792,92.8035,-0.00031409,-3.837e-05,0.0,0 STARLINK-5104,1 55646U 23021U   24086.59732022 -.00003837  00000-0 -31409-3 0  9997,2 55646  70.0001 182.5541 0002900 267.2792  92.8035 14.98311736 61971,6950.249,96.108,574.13,570.099,0.0
55646.0,STARLINK-5104,PAYLOAD,2024-03-26 15:56:16,14.98313891,0.0002944,70.0003,182.3864,272.992,87.0902,-0.00030567,-3.737e-05,0.0,0 STARLINK-5104,1 55646U 23021U   24086.66407956 -.00003737  00000-0 -30567-3 0  9993,2 55646  70.0003 182.3864 0002944 272.9920  87.0902 14.98313891 61987,6950.243,96.108,574.154,570.062,0.0
55646.0,STARLINK-5104,PAYLOAD,2024-03-26 23:56:56,14.98322557,0.0003317,70.0009,181.5446,266.2331,93.8449,-0.00014427,-1.814e-05,0.0,0 STARLINK-5104,1 55646U 23021U   24086.99787105 -.00001814  00000-0 -14427-3 0  9997,2 55646  70.0009 181.5446 0003317 266.2331  93.8449 14.98322557 61730,6950.216,96.107,574.386,569.776,0.0
55646.0,STARLINK-5104,PAYLOAD,2024-03-27 12:45:59,14.9833122,0.0003125,70.0001,180.1982,266.1466,93.9335,0.00017307,1.973e-05,0.0,0 STARLINK-5104,1 55646U 23021U   24087.53194009  .00001973  00000-0  17307-3 0  9997,2 55646  70.0001 180.1982 0003125 266.1466  93.9335 14.98331220 61818,6950.189,96.107,574.226,569.882,0.0
55646.0,STARLINK-5104,PAYLOAD,2024-03-27 14:22:07,14.9833398,0.0003078,70.0001,180.03,266.3969,93.6838,0.00019737,2.263e-05,0.0,0 STARLINK-5104,1 55646U 23021U   24087.59869789  .00002263  00000-0  19737-3 0  9999,2 55646  70.0001 180.0300 0003078 266.3969  93.6838 14.98333980 62123,6950.181,96.107,574.185,569.906,0.0
55646.0,STARLINK-5104,PAYLOAD,2024-03-27 15:58:15,14.98336227,0.0003098,70.0002,179.8617,266.3394,93.741,0.00022236,2.562e-05,0.0,0 STARLINK-5104,1 55646U 23021U   24087.66545574  .00002562  00000-0  22236-3 0  9990,2 55646  70.0002 179.8617 0003098 266.3394  93.7410 14.98336227 62130,6950.174,96.107,574.192,569.885,0.0
55646.0,STARLINK-5104,PAYLOAD,2024-03-28 12:48:00,14.98331291,0.0003053,70.001,177.6752,264.7487,95.3324,0.00037339,4.365e-05,0.0,0 STARLINK-5104,1 55646U 23021U   24088.53333414  .00004365  00000-0  37339-3 0  9998,2 55646  70.0010 177.6752 0003053 264.7487  95.3324 14.98331291 61969,6950.189,96.107,574.176,569.932,0.0
55646.0,STARLINK-5104,PAYLOAD,2024-03-28 16:00:16,14.98332952,0.0003046,70.0009,177.3387,265.1132,94.9679,0.00036985,4.323e-05,0.0,0 STARLINK-5104,1 55646U 23021U   24088.66685311  .00004323  00000-0  36985-3 0  9998,2 55646  70.0009 177.3387 0003046 265.1132  94.9679 14.98332952 62281,6950.184,96.107,574.166,569.932,0.0
55646.0,STARLINK-5104,PAYLOAD,2024-03-29 12:50:01,14.98339203,0.0003007,70.0009,175.1512,263.0716,97.0101,-7.6458e-05,-1.005e-05,0.0,0 STARLINK-5104,1 55646U 23021U   24089.53473809 -.00001005  00000-0 -76458-4 0  9998,2 55646  70.0009 175.1512 0003007 263.0716  97.0101 14.98339203 62111,6950.164,96.106,574.119,569.94,0.0
55646.0,STARLINK-5104,PAYLOAD,2024-03-29 22:26:49,14.98338392,0.0002942,70.0007,174.1398,267.9006,92.1816,-0.0001134,-1.446e-05,0.0,0 STARLINK-5104,1 55646U 23021U   24089.93529701 -.00001446  00000-0 -11340-3 0  9992,2 55646  70.0007 174.1398 0002942 267.9006  92.1816 14.98338392 62478,6950.167,96.106,574.077,569.987,0.0
55646.0,STARLINK-5104,PAYLOAD,2024-03-30 12:52:01,14.98335605,0.0002942,70.001,172.6253,267.9444,92.1378,-8.0282e-05,-1.051e-05,0.0,0 STARLINK-5104,1 55646U 23021U   24090.53613422 -.00001051  00000-0 -80282-4 0  9998,2 55646  70.0010 172.6253 0002942 267.9444  92.1378 14.98335605 62265,6950.176,96.107,574.085,569.996,0.0
55646.0,STARLINK-5104,PAYLOAD,2024-03-30 14:28:09,14.98336125,0.0002999,70.0008,172.4568,269.3507,90.7309,-7.5695e-05,-9.96e-06,0.0,0 STARLINK-5104,1 55646U 23021U   24090.60289350 -.00000996  00000-0 -75695-4 0  9994,2 55646  70.0008 172.4568 0002999 269.3507  90.7309 14.98336125 62577,6950.174,96.107,574.123,569.955,0.0
55646.0,STARLINK-5104,PAYLOAD,2024-03-30 22:28:49,14.98363415,0.0003251,70.0012,171.6142,275.0772,85.0016,-0.00063059,-7.616e-05,0.0,0 STARLINK-5104,1 55646U 23021U   24090.93668663 -.00007616  00000-0 -63059-3 0  9994,2 55646  70.0012 171.6142 0003251 275.0772  85.0016 14.98363415 62621,6950.09,96.105,574.214,569.695,0.0
55646.0,STARLINK-5104,PAYLOAD,2024-03-31 12:54:03,14.98320241,0.0002927,70.0006,170.1002,269.6388,90.4436,-5.9079e-05,-7.98e-06,0.0,0 STARLINK-5104,1 55646U 23021U   24091.53754299 -.00000798  00000-0 -59079-4 0  9994,2 55646  70.0006 170.1002 0002927 269.6388  90.4436 14.98320241 62417,6950.223,96.108,574.122,570.054,0.0
55646.0,STARLINK-5104,PAYLOAD,2024-03-31 14:30:11,14.9832192,0.0002811,70.0008,169.932,264.7043,95.3796,-7.838e-05,-1.028e-05,0.0,0 STARLINK-5104,1 55646U 23021U   24091.60430249 -.00001028  00000-0 -78380-4 0  9991,2 55646  70.0008 169.9320 0002811 264.7043  95.3796 14.98321920 62726,6950.218,96.108,574.037,570.129,0.0
55646.0,STARLINK-5104,PAYLOAD,2024-03-31 22:30:51,14.98328804,0.0003118,70.0003,169.09,270.7485,89.3317,-7.2101e-05,-9.53e-06,0.0,0 STARLINK-5104,1 55646U 23021U   24091.93809855 -.00000953  00000-0 -72101-4 0  9991,2 55646  70.0003 169.0900 0003118 270.7485  89.3317 14.98328804 62779,6950.197,96.107,574.229,569.895,0.0
